TEVEL2-7                
1 63238U 25052AE  26068.66113295  .00019244  00000+0  69668-3 0  9998
2 63238  97.4054 324.3041 0008105 124.6830 235.5175 15.28414096 54803
STARLINK-35381          
1 65826U 25221D   26068.42050349  .00022163  00000+0  75725-3 0  9990
2 65826  53.1591  89.4930 0001037  86.1717 273.9403 15.30240191 26043
