[{"OBJECT_NAME":"TEVEL2-7","OBJECT_ID":"2025-052AE","EPOCH":"2026-03-09T15:52:01.887744","MEAN_MOTION":15.28414096,"ECCENTRICITY":0.00081048,"INCLINATION":97.4054,"RA_OF_ASC_NODE":324.3041,"ARG_OF_PERICENTER":124.683,"MEAN_ANOMALY":235.5175,"EPHEMERIS_TYPE":0,"CLASSIFICATION_TYPE":"U","NORAD_CAT_ID":63238,"ELEMENT_SET_NO":999,"REV_AT_EPOCH":5480,"BSTAR":0.00069668191,"MEAN_MOTION_DOT":0.00019244,"MEAN_MOTION_DDOT":0},{"OBJECT_NAME":"STARLINK-35381","OBJECT_ID":"2025-221D","EPOCH":"2026-03-09T10:05:31.501536","MEAN_MOTION":15.30240191,"ECCENTRICITY":0.00010375,"INCLINATION":53.1591,"RA_OF_ASC_NODE":89.493,"ARG_OF_PERICENTER":86.1717,"MEAN_ANOMALY":273.9403,"EPHEMERIS_TYPE":0,"CLASSIFICATION_TYPE":"U","NORAD_CAT_ID":65826,"ELEMENT_SET_NO":999,"REV_AT_EPOCH":2604,"BSTAR":0.0007572518,"MEAN_MOTION_DOT":0.00022163,"MEAN_MOTION_DDOT":0}]
